0 METEOR 1-10 DEB
1 36925U 71120N   13287.78646725  .00027794  00000-0  35767-2 0   677
2 36925 081.2161 109.2157 0005414 355.7910 091.4907 14.80971258379784
0 METEOR 1-10 DEB
1 36925U 71120N   13294.18786183  .00034446  00000-0  43815-2 0   688
2 36925 081.2146 102.2164 0002693 258.0564 103.4964 14.81429292380735
